[{"OBJECT_NAME":"STARLINK-36335","OBJECT_ID":"2026-040A","EPOCH":"2026-03-07T06:00:00.999648","MEAN_MOTION":16.0948126,"ECCENTRICITY":9.56e-5,"INCLINATION":97.2833,"RA_OF_ASC_NODE":14.178,"ARG_OF_PERICENTER":100.4908,"MEAN_ANOMALY":309.6894,"EPHEMERIS_TYPE":0,"CLASSIFICATION_TYPE":"U","NORAD_CAT_ID":68015,"ELEMENT_SET_NO":999,"REV_AT_EPOCH":198,"BSTAR":-0.00083774419,"MEAN_MOTION_DOT":-0.00750801,"MEAN_MOTION_DDOT":0.00021614193},{"OBJECT_NAME":"STARLINK-36923","OBJECT_ID":"2026-040B","EPOCH":"2026-03-07T06:00:00.999648","MEAN_MOTION":16.09726084,"ECCENTRICITY":9.473e-5,"INCLINATION":97.2833,"RA_OF_ASC_NODE":14.1794,"ARG_OF_PERICENTER":102.0504,"MEAN_ANOMALY":311.0805,"EPHEMERIS_TYPE":0,"CLASSIFICATION_TYPE":"U","NORAD_CAT_ID":68016,"ELEMENT_SET_NO":999,"REV_AT_EPOCH":203,"BSTAR":-0.00084392027,"MEAN_MOTION_DOT":-0.00768237,"MEAN_MOTION_DDOT":0.00022627547},{"OBJECT_NAME":"STARLINK-36568","OBJECT_ID":"2026-040C","EPOCH":"2026-03-07T06:00:00.999648","MEAN_MOTION":16.09833334,"ECCENTRICITY":9.312e-5,"INCLINATION":97.2832,"RA_OF_ASC_NODE":14.1801,"ARG_OF_PERICENTER":104.1089,"MEAN_ANOMALY":310.3848,"EPHEMERIS_TYPE":0,"CLASSIFICATION_TYPE":"U","NORAD_CAT_ID":68017,"ELEMENT_SET_NO":999,"REV_AT_EPOCH":203,"BSTAR":-0.00083976194,"MEAN_MOTION_DOT":-0.00769753,"MEAN_MOTION_DDOT":0.00022742552},{"OBJECT_NAME":"STARLINK-36930","OBJECT_ID":"2026-040D","EPOCH":"2026-03-07T06:00:00.999648","MEAN_MOTION":16.09603419,"ECCENTRICITY":8.299e-5,"INCLINATION":97.2832,"RA_OF_ASC_NODE":14.1789,"ARG_OF_PERICENTER":113.8929,"MEAN_ANOMALY":297.7584,"EPHEMERIS_TYPE":0,"CLASSIFICATION_TYPE":"U","NORAD_CAT_ID":68018,"ELEMENT_SET_NO":999,"REV_AT_EPOCH":203,"BSTAR":-0.00084265702,"MEAN_MOTION_DOT":-0.00761081,"MEAN_MOTION_DDOT":0.0002220202},{"OBJECT_NAME":"STARLINK-36921","OBJECT_ID":"2026-040E","EPOCH":"2026-03-07T06:00:00.999648","MEAN_MOTION":16.10014032,"ECCENTRICITY":9.344e-5,"INCLINATION":97.2833,"RA_OF_ASC_NODE":14.1812,"ARG_OF_PERICENTER":109.5421,"MEAN_ANOMALY":307.448,"EPHEMERIS_TYPE":0,"CLASSIFICATION_TYPE":"U","NORAD_CAT_ID":68019,"ELEMENT_SET_NO":999,"REV_AT_EPOCH":203,"BSTAR":-0.00082048206,"MEAN_MOTION_DOT":-0.0076099,"MEAN_MOTION_DDOT":0.00022317818},{"OBJECT_NAME":"STARLINK-36928","OBJECT_ID":"2026-040F","EPOCH":"2026-03-07T06:00:00.999648","MEAN_MOTION":16.0991537,"ECCENTRICITY":9.083e-5,"INCLINATION":97.2829,"RA_OF_ASC_NODE":14.1802,"ARG_OF_PERICENTER":103.2177,"MEAN_ANOMALY":312.3564,"EPHEMERIS_TYPE":0,"CLASSIFICATION_TYPE":"U","NORAD_CAT_ID":68020,"ELEMENT_SET_NO":999,"REV_AT_EPOCH":203,"BSTAR":-0.00084016543,"MEAN_MOTION_DOT":-0.00774185,"MEAN_MOTION_DDOT":0.00023010968},{"OBJECT_NAME":"STARLINK-36858","OBJECT_ID":"2026-040G","EPOCH":"2026-03-07T06:00:00.999648","MEAN_MOTION":16.10123937,"ECCENTRICITY":9.294e-5,"INCLINATION":97.2826,"RA_OF_ASC_NODE":14.1813,"ARG_OF_PERICENTER":113.305,"MEAN_ANOMALY":305.0029,"EPHEMERIS_TYPE":0,"CLASSIFICATION_TYPE":"U","NORAD_CAT_ID":68021,"ELEMENT_SET_NO":999,"REV_AT_EPOCH":203,"BSTAR":-0.00082775694,"MEAN_MOTION_DOT":-0.00773142,"MEAN_MOTION_DDOT":0.00023016744},{"OBJECT_NAME":"STARLINK-36916","OBJECT_ID":"2026-040H","EPOCH":"2026-03-07T06:00:00.999648","MEAN_MOTION":16.10239955,"ECCENTRICITY":9.711e-5,"INCLINATION":97.283,"RA_OF_ASC_NODE":14.1823,"ARG_OF_PERICENTER":109.2446,"MEAN_ANOMALY":310.5496,"EPHEMERIS_TYPE":0,"CLASSIFICATION_TYPE":"U","NORAD_CAT_ID":68022,"ELEMENT_SET_NO":999,"REV_AT_EPOCH":203,"BSTAR":-0.0008221264,"MEAN_MOTION_DOT":-0.00773694,"MEAN_MOTION_DDOT":0.0002308281},{"OBJECT_NAME":"STARLINK-36871","OBJECT_ID":"2026-040J","EPOCH":"2026-03-07T06:00:00.999648","MEAN_MOTION":16.10354416,"ECCENTRICITY":8.971e-5,"INCLINATION":97.2827,"RA_OF_ASC_NODE":14.1827,"ARG_OF_PERICENTER":112.3182,"MEAN_ANOMALY":308.8758,"EPHEMERIS_TYPE":0,"CLASSIFICATION_TYPE":"U","NORAD_CAT_ID":68023,"ELEMENT_SET_NO":999,"REV_AT_EPOCH":203,"BSTAR":-0.00081894406,"MEAN_MOTION_DOT":-0.00776434,"MEAN_MOTION_DDOT":0.00023269899},{"OBJECT_NAME":"STARLINK-36891","OBJECT_ID":"2026-040K","EPOCH":"2026-03-07T06:00:00.999648","MEAN_MOTION":16.10506308,"ECCENTRICITY":0.00010173,"INCLINATION":97.2827,"RA_OF_ASC_NODE":14.1838,"ARG_OF_PERICENTER":110.2915,"MEAN_ANOMALY":312.6164,"EPHEMERIS_TYPE":0,"CLASSIFICATION_TYPE":"U","NORAD_CAT_ID":68024,"ELEMENT_SET_NO":999,"REV_AT_EPOCH":203,"BSTAR":-0.00081984187,"MEAN_MOTION_DOT":-0.00784973,"MEAN_MOTION_DDOT":0.00023794598},{"OBJECT_NAME":"STARLINK-36378","OBJECT_ID":"2026-040L","EPOCH":"2026-03-07T06:00:00.999648","MEAN_MOTION":16.10729185,"ECCENTRICITY":9.17e-5,"INCLINATION":97.283,"RA_OF_ASC_NODE":14.1851,"ARG_OF_PERICENTER":109.3348,"MEAN_ANOMALY":316.6135,"EPHEMERIS_TYPE":0,"CLASSIFICATION_TYPE":"U","NORAD_CAT_ID":68025,"ELEMENT_SET_NO":999,"REV_AT_EPOCH":198,"BSTAR":-0.00078004274,"MEAN_MOTION_DOT":-0.00758013,"MEAN_MOTION_DDOT":0.00022368134},{"OBJECT_NAME":"STARLINK-36884","OBJECT_ID":"2026-040M","EPOCH":"2026-03-07T06:00:00.999648","MEAN_MOTION":16.10618655,"ECCENTRICITY":9.215e-5,"INCLINATION":97.2826,"RA_OF_ASC_NODE":14.184,"ARG_OF_PERICENTER":111.1617,"MEAN_ANOMALY":313.3135,"EPHEMERIS_TYPE":0,"CLASSIFICATION_TYPE":"U","NORAD_CAT_ID":68026,"ELEMENT_SET_NO":999,"REV_AT_EPOCH":203,"BSTAR":-0.00079343668,"MEAN_MOTION_DOT":-0.00765418,"MEAN_MOTION_DDOT":0.00022741374},{"OBJECT_NAME":"STARLINK-36940","OBJECT_ID":"2026-040N","EPOCH":"2026-03-07T06:00:00.999648","MEAN_MOTION":16.12728775,"ECCENTRICITY":7.46e-5,"INCLINATION":97.2806,"RA_OF_ASC_NODE":14.1987,"ARG_OF_PERICENTER":102.7668,"MEAN_ANOMALY":354.3077,"EPHEMERIS_TYPE":0,"CLASSIFICATION_TYPE":"U","NORAD_CAT_ID":68027,"ELEMENT_SET_NO":999,"REV_AT_EPOCH":213,"BSTAR":-0.00060340937,"MEAN_MOTION_DOT":-0.00670306,"MEAN_MOTION_DDOT":0.00018297503},{"OBJECT_NAME":"STARLINK-36253","OBJECT_ID":"2026-040P","EPOCH":"2026-03-07T06:00:00.999648","MEAN_MOTION":16.03750207,"ECCENTRICITY":0.00012069,"INCLINATION":97.2811,"RA_OF_ASC_NODE":14.1703,"ARG_OF_PERICENTER":113.9635,"MEAN_ANOMALY":280.6291,"EPHEMERIS_TYPE":0,"CLASSIFICATION_TYPE":"U","NORAD_CAT_ID":68028,"ELEMENT_SET_NO":999,"REV_AT_EPOCH":213,"BSTAR":-0.0028170616,"MEAN_MOTION_DOT":-0.01757414,"MEAN_MOTION_DDOT":0.00097546135},{"OBJECT_NAME":"STARLINK-36944","OBJECT_ID":"2026-040Q","EPOCH":"2026-03-07T06:00:00.999648","MEAN_MOTION":16.1083163,"ECCENTRICITY":8.81e-5,"INCLINATION":97.2821,"RA_OF_ASC_NODE":14.1851,"ARG_OF_PERICENTER":99.3712,"MEAN_ANOMALY":327.9043,"EPHEMERIS_TYPE":0,"CLASSIFICATION_TYPE":"U","NORAD_CAT_ID":68029,"ELEMENT_SET_NO":999,"REV_AT_EPOCH":203,"BSTAR":-0.00077436481,"MEAN_MOTION_DOT":-0.00757564,"MEAN_MOTION_DDOT":0.00022374442},{"OBJECT_NAME":"STARLINK-36942","OBJECT_ID":"2026-040R","EPOCH":"2026-03-07T06:00:00.999648","MEAN_MOTION":16.10954342,"ECCENTRICITY":9.411e-5,"INCLINATION":97.2827,"RA_OF_ASC_NODE":14.1859,"ARG_OF_PERICENTER":109.3433,"MEAN_ANOMALY":319.4286,"EPHEMERIS_TYPE":0,"CLASSIFICATION_TYPE":"U","NORAD_CAT_ID":68030,"ELEMENT_SET_NO":999,"REV_AT_EPOCH":203,"BSTAR":-0.00076920321,"MEAN_MOTION_DOT":-0.00758602,"MEAN_MOTION_DDOT":0.00022468161}]
