STARLINK-36335          
1 68015U 26040A   26066.25001157 -.00750801  21614-3 -83774-3 0  9995
2 68015  97.2833  14.1780 0000956 100.4908 309.6894 16.09481260  1981
STARLINK-36923          
1 68016U 26040B   26066.25001157 -.00768237  22628-3 -84392-3 0  9991
2 68016  97.2833  14.1794 0000947 102.0504 311.0805 16.09726084  2039
STARLINK-36568          
1 68017U 26040C   26066.25001157 -.00769753  22743-3 -83976-3 0  9991
2 68017  97.2832  14.1801 0000931 104.1089 310.3848 16.09833334  2038
STARLINK-36930          
1 68018U 26040D   26066.25001157 -.00761081  22202-3 -84266-3 0  9991
2 68018  97.2832  14.1789 0000829 113.8929 297.7584 16.09603419  2034
STARLINK-36921          
1 68019U 26040E   26066.25001157 -.00760990  22318-3 -82048-3 0  9994
2 68019  97.2833  14.1812 0000934 109.5421 307.4480 16.10014032  2032
STARLINK-36928          
1 68020U 26040F   26066.25001157 -.00774185  23011-3 -84017-3 0  9996
2 68020  97.2829  14.1802 0000908 103.2177 312.3564 16.09915370  2039
STARLINK-36858          
1 68021U 26040G   26066.25001157 -.00773142  23017-3 -82776-3 0  9995
2 68021  97.2826  14.1813 0000929 113.3050 305.0029 16.10123937  2031
STARLINK-36916          
1 68022U 26040H   26066.25001157 -.00773694  23083-3 -82213-3 0  9997
2 68022  97.2830  14.1823 0000971 109.2446 310.5496 16.10239955  2035
STARLINK-36871          
1 68023U 26040J   26066.25001157 -.00776434  23270-3 -81894-3 0  9995
2 68023  97.2827  14.1827 0000897 112.3182 308.8758 16.10354416  2036
STARLINK-36891          
1 68024U 26040K   26066.25001157 -.00784973  23795-3 -81984-3 0  9995
2 68024  97.2827  14.1838 0001017 110.2915 312.6164 16.10506308  2038
STARLINK-36378          
1 68025U 26040L   26066.25001157 -.00758013  22368-3 -78004-3 0  9996
2 68025  97.2830  14.1851 0000917 109.3348 316.6135 16.10729185  1980
STARLINK-36884          
1 68026U 26040M   26066.25001157 -.00765418  22741-3 -79344-3 0  9997
2 68026  97.2826  14.1840 0000921 111.1617 313.3135 16.10618655  2039
STARLINK-36940          
1 68027U 26040N   26066.25001157 -.00670306  18298-3 -60341-3 0  9998
2 68027  97.2806  14.1987 0000746 102.7668 354.3077 16.12728775  2135
STARLINK-36253          
1 68028U 26040P   26066.25001157 -.01757414  97546-3 -28171-2 0  9993
2 68028  97.2811  14.1703 0001206 113.9635 280.6291 16.03750207  2132
STARLINK-36944          
1 68029U 26040Q   26066.25001157 -.00757564  22374-3 -77436-3 0  9995
2 68029  97.2821  14.1851 0000881  99.3712 327.9043 16.10831630  2036
STARLINK-36942          
1 68030U 26040R   26066.25001157 -.00758602  22468-3 -76920-3 0  9992
2 68030  97.2827  14.1859 0000941 109.3433 319.4286 16.10954342  2032
